[{"OBJECT_NAME":"STARLINK-32793","OBJECT_ID":"2025-022W","EPOCH":"2026-03-09T11:06:33.156864","MEAN_MOTION":15.3018261,"ECCENTRICITY":0.00013197,"INCLINATION":53.158,"RA_OF_ASC_NODE":130.8017,"ARG_OF_PERICENTER":72.4699,"MEAN_ANOMALY":287.6446,"EPHEMERIS_TYPE":0,"CLASSIFICATION_TYPE":"U","NORAD_CAT_ID":62874,"ELEMENT_SET_NO":999,"REV_AT_EPOCH":6186,"BSTAR":0.001221378,"MEAN_MOTION_DOT":0.0003597,"MEAN_MOTION_DDOT":0},{"OBJECT_NAME":"KUIPER-00175","OBJECT_ID":"2025-301C","EPOCH":"2026-03-09T23:30:37.840032","MEAN_MOTION":15.30996371,"ECCENTRICITY":0.00022792,"INCLINATION":51.8781,"RA_OF_ASC_NODE":63.6978,"ARG_OF_PERICENTER":50.5695,"MEAN_ANOMALY":309.549,"EPHEMERIS_TYPE":0,"CLASSIFICATION_TYPE":"U","NORAD_CAT_ID":67135,"ELEMENT_SET_NO":999,"REV_AT_EPOCH":1385,"BSTAR":0.00066732304,"MEAN_MOTION_DOT":0.00019968,"MEAN_MOTION_DDOT":0}]
